City,State,ZIP,Latitude,Longitude
Essex,ON,N8M 1Y1,42.167112,-82.816715
Comber,ON,N0P 1J0,42.239116,-82.550227
Windsor,ON,N9J 1Z9,42.241722,-83.102857
Old Castle,ON,N0R 1L0,42.24333,-82.94717
Windsor,ON,N9C 4J5,42.26009628,-83.08496642
Tillbury,ON,N0P 2L0,42.262758,-82.446151
Tilbury,ON,N0P 2L0,42.2646,-82.42569
Windsor,ON,N8X 4Y8,42.274246,-83.006671
Chatham-Kent,ON,N0P 2L0,42.27456621,-82.4002133
Tilbury,ON,N0P 2L0,42.27661152,-82.40104492
Windsor,ON,N8X 1T2,42.2890479,-83.0222068
Windsor,ON,N8W 1G2,42.29218,-83.05804
Windsor,ON,N8R 1A1,42.313713,-82.924253
Tecumseh,ON,N8R 1A2,42.314019,-82.916044
Chatham,ON,N7M 5J3,42.388179,-82.096361
Chatham,ON,N7L 4L3,42.395337,-82.212924
Chatham,ON,N7M 2M4,42.40411,-82.189163
Wallaceburg,ON,N8A 1R9,42.586657,-82.38482
Wallaceburg,ON,N8A 2P1,42.593662,-82.384914
Dutton,ON,N0L 1J0,42.64440095,-81.56047577
Dutton,ON,N0L 1J0,42.6495876,-81.55691932
Port Dover,ON,N0A 1N0,42.787499,-80.205286
Simcoe,ON,N3Y 3N6,42.837253,-80.304252
Simcoe,ON,N3Y 3N7,42.838473,-80.304814
Tillsonburg,ON,N4G 5V7,42.853153,-80.689851
Tillsonburg,ON,N4G 3S7,42.87722,-80.744461
Petrolia,ON,N0N 1R0,42.881106,-82.146763
Port Colborne,ON,L3K 3W2,42.899117,-79.258793
Fort Erie,ON,L2A 1N8,42.904444,-78.958962
Fort Erie,ON,L2A 1M7,42.904712,-78.924098
London,ON,N6E 2Z6,42.917334,-81.208558
London,ON,N6E 2Z8,42.91773137,-81.20899009
London,ON,N6E 1M5,42.92579161,-81.21543277
London,ON,N6E 1M1,42.93072,-81.22085
London,ON,N6E 1M1,42.9308856,-81.221
London,ON,N6J 2N7,42.947677,-81.258042
Cayuga,ON,N0A 1E0,42.951401,-79.849479
Dorchester,ON,N0L 1G0,42.95611,-81.061756
London,ON,N6J 2N1,42.9581,-81.2616
Strathroy,ON,N7G 3C1,42.9673138,-81.6339047
Sarnia,ON,N7S 5T7,42.97751467,-82.36554824
Sarnia,ON,N7S 5T7,42.97904529,-82.36480385
London,ON,N6H 3E5,42.981413,-81.291468
Sarnia,ON,B3J 3R6,42.98525,-82.35662
Sarnia,ON,N7T 5H3,42.98966,-82.40419
Point Edward,ON,N7V 4J5,42.9923795,-82.4106227
Strathroy,ON,N7G 3H6,43.0046196,-81.699951
Sarnia,ON,N7V 3L8,43.005069,-82.388348
Welland,ON,L3B 0A1,43.0153,-79.22866
London,ON,N6G 3Y9,43.027706,-81.277942
Ingersoll,ON,N5C 2J2,43.037577,-80.883237
Niagara Falls,ON,L2G 5Z2,43.059827,-79.053274
Niagara Falls,ON,L2H 2E9,43.0659416,-79.1259231
Woodstock,ON,N4S 7W8,43.06662892,-80.79829985
Niagara Falls,ON,L2E 2G5,43.1051228,-79.1096048
Woodstock,ON,N4V 1E5,43.111857,-80.738677
Woodstock,ON,N4V 1E5,43.111918,-80.738804
Niagara Falls,ON,L2H 1A2,43.1141,-79.125047
Woodstock,ON,N4S 3W5,43.115847,-80.736863
Niagara Falls,ON,L2H 3K3,43.116828,-79.124508
Woodstock,ON,N4S 1C3,43.13038,-80.756733
St. Catharines,ON,L2T 2L5,43.1341503,-79.2183716
Brantford,ON,N3T 5L9,43.14943609,-80.1870915
Brantford,ON,N3R 5K4,43.16529055,-80.27460708
Brantford,ON,N3R 6A4,43.172782,-80.244395
St. Catharines,ON,L2R 7R8,43.18041107,-79.25200555
Ancaster,ON,L9G 3K9,43.196149,-80.020687
Ancaster,ON,L9G 3K9,43.1998063,-80.0138415
Grimsby,ON,L3M 4E8,43.2042798,-79.5898923
Grimsby,ON,L3M 4E8,43.209697,-79.600861
Hamilton,ON,L9C 3B2,43.215631,-79.887013
Hamilton,ON,L9A 4X5,43.216698,-79.86401
Hamilton,ON,L9A 4X5,43.217348,-79.86265
Stoney Creek,ON,L8G 3X2,43.220618,-79.734423
Hamilton,ON,L8V 3N1,43.22103022,-79.85242496
Ancaster,ON,L9K 1J3,43.22695136,-79.94778996
Ancaster,ON,L9K 1J3,43.22695136,-79.94778996
Hamilton,ON,L8G 1A3,43.2285,-79.77316
Hamilton,ON,L8G 1A3,43.2286,-79.77384
Hamilton,ON,L9C 3A1,43.228748,-79.880776
Hamilton,ON,L9K 1J9,43.2296491,-79.9395532
Grand Bend,ON,N0M 1T0,43.313898,-81.755071
Burlington,ON,L7S 2J8,43.326276,-79.822231
Burlington,ON,L7T 4K1,43.328164,-79.828969
Burlington,ON,L7R 3N2,43.347144,-79.793638
Burlington,ON,L7R 3N2,43.3485131,-79.7935979
Stratford,ON,N4Z 1H3,43.360529,-81.008506
Stratford,ON,N4Z 1H3,43.360712,-81.008414
Exeter,ON,N0M 1S3,43.3626527,-81.4795456
Burlington,ON,L7L 1C8,43.368077,-79.730392
Burlington,ON,L7L 4X6,43.369599,-79.785139
Stratford,ON,N5A 6W6,43.37079,-80.94386
Stratford,ON,N5A 3G7,43.37117,-80.984129
Hamilton,ON,L8N 2Z7,43.376783,-80.00409
Oakville,ON,L6L 6W2,43.38504947,-79.73498293
Burlington,ON,L7L 5H9,43.38759715,-79.78045248
Oakville,ON,L6L 0B6,43.3964291,-79.7494071
Burlington,ON,L7L 6M6,43.396617,-79.795893
Cambridge,ON,N3H 1J2,43.398023,-80.370483
Cambridge,ON,N1R 6J8,43.401841,-80.32671
Cambridge,ON,N1R 8K5,43.408785,-80.325434
Cambridge,ON,N3H 4R7,43.409694,-80.3359789
Kitchener,ON,N2C 1X1,43.425241,-80.439443
Oakville,ON,L6M 4A1,43.42637,-79.726171
Kitchener,ON,N2A 1A6,43.429016,-80.435596
Cambridge,ON,N3C 2V4,43.43334602,-80.24552791
Cambridge,ON,N3C 2V6,43.43525621,-80.24584462
Oakville,ON,L6K 3X7,43.446888,-79.694967
Waterloo,ON,N2T 2Z7,43.44774,-80.57394
Oakville,ON,L6M 0L4,43.449901,-79.697644
Waterloo,ON,N2L 2X3,43.453863,-80.553791
Kitchener,ON,N2H 5G3,43.461251,-80.472322
Oakville,ON,L6H 3H6,43.461607,-79.6868686
Oakville,ON,L6H 3H6,43.46181724,-79.68690079
Aberfoyle,ON,N1H 6H9,43.471537,-80.149843
Waterloo,ON,N2L 3G1,43.472984,-80.53837
Waterloo,ON,N2J 3J3,43.485126,-80.524241
Oakville,ON,L6H 6Z9,43.48907258,-79.71590805
Mississauga,ON,L5J 2Y4,43.5087367,-79.6289806
Mississauga,ON,L5J 2Y4,43.50892343,-79.6289806
Milton,ON,L9T 1Y2,43.52206,-79.893905
Milton,ON,L9T 3H5,43.523499,-79.899493
Guelph,ON,N1G 5G4,43.52367,-80.23057
Milton,ON,L9T 3Z3,43.526654,-79.869594
Milton,ON,L9T 0J4,43.5276242,-79.866762
Guelph,ON,N1K 1B7,43.536919,-80.318227
Guelph,ON,N1H 4E8,43.546952,-80.250767
Guelph,ON,N1H 7K9,43.54775,-80.30305
Guelph,ON,N1H 7K8,43.54890338,-80.30033967
Mississauga,ON,L5H 1Z6,43.55024753,-79.61585217
Port Credit,ON,L5G 1E9,43.556359,-79.580945
Toronto,ON,L7G 0J1,43.57647,-79.82757
Mississauga,ON,L5B 4M6,43.5801567,-79.6470088
Linwood,ON,N0B 2A0,43.581519,-80.728389
Mississauga,ON,L5A 4K9,43.5834681,-79.6203344
Mississauga,ON,L5A 4K9,43.583515,-79.620338
Mississauga,ON,L5N 5Z1,43.597203,-79.740092
Mississauga,ON,L5N 8C5,43.59808,-79.77959
Mississauga,ON,L5N 8E1,43.598406,-79.786219
Mississauga,ON,L4Y 2C1,43.604555,-79.588165
Mississauga,ON,L5N 7Y5,43.608484,-79.74507
Mississauga,ON,L5V 2P5,43.61157057,-79.6956266
Etobicoke,ON,M9C 1B8,43.612973,-79.559993
Etobicoke,ON,M9C 1B8,43.613938,-79.55414
Mississauga,ON,L4Z 3K8,43.6151424,-79.6606372
Etobicoke,ON,M8Z 1V1,43.617111,-79.544867
Toronto,ON,M8Z 1T3,43.618926,-79.534487
Mississauga,ON,L5W 1L9,43.62454604,-79.71140326
Mississauga,ON,L5N 5Z1,43.631541,-79.624115
Toronto,ON,M6K 3C3,43.632655,-79.411641
Ontario,ON,L5W 0B3,43.635722,-79.694472
Mississauga,ON,L4W 5S6,43.636621,-79.621466
Mississauga,ON,L5T 2Y3,43.637139,-79.691526
Mississauga,ON,L4W 0B4,43.638814,-79.607758
Mississauga,ON,L4W 0B5,43.638824,-79.608837
Toronto,ON,M6R 1B5,43.639359,-79.450101
Toronto,ON,M5E 1Z2,43.643603,-79.370949
Toronto,ON,M5J 2M3,43.645275,-79.38256
Toronto,ON,M5V 3C7,43.645863,-79.387849
Toronto,ON,M5J 2J1,43.646302,-79.379753
Mississauga,ON,L5S 1Z8,43.647357,-79.709644
Toronto,ON,M5H 4G2,43.647473,-79.383952
Toronto,ON,M5H 3T4,43.647828,-79.385755
Toronto,ON,M5H 3T4,43.647915,-79.385723
Mississauga,ON,L4W 5P8,43.652635,-79.614324
Toronto,ON,M5A 1H7,43.653395,-79.357976
Toronto,ON,M5G 2J5,43.653998,-79.387212
Toronto,ON,M5A 1R5,43.65506444,-79.36340584
Toronto,ON,M5B 2H1,43.655071,-79.383059
Toronto,ON,M5B 2H1,43.655596,-79.382963
Toronto,ON,M5G 2K4,43.658226,-79.385065
Toronto,ON,M5G 1M1,43.659501,-79.38967
Mississauga,ON,L4W 4Z5,43.659886,-79.607736
Toronto,ON,M5S 2C6,43.668613,-79.394558
Toronto,ON,M4W 1A5,43.669179,-79.38813
Mississauga,ON,L4W 2P7,43.669669,-79.59609
Mississauga,ON,L4W 2P7,43.66969,-79.596079
Mississauga,ON,L4W 2P7,43.669717,-79.596063
Mississauga,ON,L4W 2P7,43.669737,-79.596044
Mississauga,ON,L4W 2P7,43.66976,-79.596028
Toronto,ON,M6N 5B4,43.67043,-79.47197
Toronto,ON,M6M 0A1,43.6862558,-79.4825385
Mississauga,ON,L4V 1B3,43.69116,-79.617093
Mississauga,ON,L4V 1B3,43.691165,-79.617124
Mississauga,ON,L4V 1B3,43.691175,-79.617156
Mississauga,ON,L4V 1B3,43.691183,-79.617187
Mississauga,ON,L4V 1B3,43.691193,-79.617219
Toronto,ON,M6B 3X8,43.70196,-79.46229
Brampton,ON,L7A 0H3,43.704824,-79.789007
York,ON,M9N 2A7,43.70800321,-79.53331189
Mississauga,ON,L4T 4E6,43.71655247,-79.62781675
Mississauga,ON,L4T 4E6,43.71655247,-79.62781675
Toronto,ON,M6A 3B4,43.71757889,-79.44717855
Brampton,ON,L6T 4B9,43.719035,-79.722865
Etobicoke,ON,M9W 7J7,43.7214387,-79.5962916
Scarborough,ON,M1L 2L1,43.72553,-79.299486
North York,ON,M3C 1K5,43.726536,-79.333092
North York,ON,M1L 2M9,43.729329,-79.280717
Brampton,ON,L6R 2K7,43.7304317,-79.7615416
Brampton,ON,L6R 2R8,43.73090749,-79.75978982
Listowel,ON,N4W 2B6,43.730962,-80.952263
Brampton,ON,L6R 2K7,43.731,-79.76784
Toronto,ON,M3K 2C8,43.73132,-79.45325
Brampton,ON,L6R 2K7,43.73245604,-79.76637437
Toronto,ON,M3K 1C9,43.733062,-79.457607
Toronto,ON,M3C 3R6,43.735299,-79.345475
Toronto,ON,M1J 2E5,43.73821,-79.2363
Brampton,ON,L6T 4A7,43.73847,-79.700201
Caledon,ON,L7C 1B5,43.743886,-79.833669
North York,ON,M2P 1N6,43.7440096,-79.4059934
Toronto,ON,M2P 2E9,43.744452,-79.404192
Goderich,ON,N7A 1R9,43.74529,-81.708428
Brampton,ON,L6R 0A9,43.758114,-79.794077
North York,ON,M2K 2X9,43.768058,-79.369078
Toronto,ON,M2N 6Z4,43.76889587,-79.41232484
Toronto,ON,L3R 5B5,43.771699,-79.2830523
Toronto,ON,M2J 5C2,43.772736,-79.327856
North York,ON,M2J 1X1,43.7752352,-79.3252687
North York,ON,M2J 5AJ,43.775977,-79.344475
North York,ON,M2J 5A7,43.777867,-79.3463
Vaughan,ON,L4L 9K6,43.7827886,-79.5454457
Toronto,ON,M2M 4J1,43.78332,-79.416048
Scarborough,ON,M1E 4C2,43.785642,-79.1940392
Vaughan,ON,L4K 5R6,43.78603,-79.532061
Toronto,ON,M1S 1T5,43.786042,-79.277752
Vaughan,ON,L4K 5C3,43.787562,-79.530244
Woodbridge,ON,L4L 1A6,43.7890617,-79.5468302
Scarborough,ON,M1S3V5,43.7899,-79.26023
Woodbridge,ON,L4L 9C3,43.790349,-79.55176
Toronto,ON,M2H 3N4,43.795856,-79.35148
Toronto,ON,M2H 3N4,43.79586,-79.351494
Scarborough,ON,M1B 1G9,43.7970149,-79.14865064
Toronto,ON,M1B 5N6,43.80183,-79.19611
Thornhill,ON,L4J 8C1,43.80323,-79.45244
Woodbridge,ON,L4L 1A7,43.81652,-79.5972
Concord,ON,L4K 5W4,43.82729,-79.538883
Arthur,ON,N0G 1A0,43.831205,-80.534873
Ajax,ON,L1S 6M3,43.83961,-79.033281
Richmond Hill,ON,L4C 6Z6,43.842636,-79.431046
Pickering,ON,L1V 7C7,43.842953,-79.069323
Pickering,ON,L1V 4H4,43.846138,-79.072896
Woodbridge,ON,L4H 0A9,43.849992,-79.552448
Vaughan,ON,L4H 0A9,43.850021,-79.551219
Markham,ON,L3R 5Y5,43.850229,-79.353535
Markham,ON,L3R 6H2,43.850906,-79.360303
Unionville,ON,L6G 0A1,43.852443,-79.310817
Markham,ON,L3S 4K7,43.85249,-79.25198
Markham,ON,L3R 5M2,43.854139,-79.306103
Markham,ON,L3R 9W3,43.85708806,-79.33746001
Bolton,ON,L7E 2Z7,43.86186,-79.70966
Oshawa,ON,L1J 7Z9,43.862439,-78.832422
Oshawa,ON,L1J 7Z9,43.8630605,-78.8303127
Ajax,ON,L1Z 1E9,43.8636263,-79.0230194
Whitby,ON,L1N 9W4,43.8656864,-78.9021249
Whitby,ON,L1N 9W4,43.866737,-78.900791
Whitby,ON,L1N 1C4,43.8669112,-78.9297082
Markham,ON,L3R 4M9,43.867494,-79.285718
Markham,ON,L3R 4M9,43.868027,-79.28659
Caledon,ON,L7E 1B3,43.875927,-79.735271
Markham,ON,L3P 1X9,43.877837,-79.260488
Oshawa,ON,L1J 6X2,43.881444,-78.882131
Markham,ON,L6C 2L1,43.88562344,-79.28968207
Oshawa,ON,L1J 1Z4,43.88633,-78.877
Markham,ON,L6C 0G6,43.88651,-79.37172
Oshawa,ON,L1H 7M7,43.8950188,-78.8627919
King City,ON,L7B 1A8,43.89518401,-79.55688475
Ajax,ON,L1T 3V3,43.895598,-79.038773
Oshawa,ON,L1H 3Z3,43.895977,-78.8663522
Oshawa,ON,L1H 3Z3,43.89606,-78.86638
Oshawa,ON,L1H 4X8,43.8973868,-78.8579746
Bowmanville,ON,L1C 7B5,43.89742344,-78.69000663
Bowmanville,ON,L1C 7B5,43.89742344,-78.69000663
Richmond Hill,ON,L4S 0B2,43.899441,-79.3956036
Oshawa,ON,L1G 8C1,43.8997756,-78.8590917
Orangeville,ON,L9W 1E5,43.9193267,-80.1034557
Orangeville,ON,L9W 1E5,43.919636,-80.103688
Orangeville,ON,L9W 2E8,43.929099,-80.098174
King City,ON,L7B 0C2,43.93194,-79.513571
Oshawa,ON,L1K 2B8,43.9369,-78.85757
Campbellcroft,ON,L0A 1B0,43.9424351,-78.43041806
Oshawa,ON,V5T 1J5,43.9478037,-78.8990724
Oshawa,ON,L1H 7K4,43.9480206,-78.8989126
Oshawa,ON,L1G 0C5,43.948383,-78.89443
Oshawa,ON,L1G 0C6,43.95056,-78.89821
Port Hope,ON,L1A 3Z4,43.954281,-78.267775
Oshawa,ON,L1K 0C8,43.9544973,-78.8667923
Port Hope,ON,L3Z 0A2,43.96432,-78.27279
Minto,ON,N0G 1M0,43.970459,-80.977081
Port Hope,ON,L1A3V6,43.971602,-78.285397
Cobourg,ON,K9A 5N4,43.977902,-78.194677
Mt. Forest,ON,N0G 2L2,43.98812624,-80.74342503
Orono,ON,L0B 1M0,44.0046519,-78.6503076
Aurora,ON,L4G 7G1,44.00734,-79.447
Picton,ON,K0K,44.008342,-77.143285
Newmarket,ON,L3Y 9A1,44.05068,-79.427167
Newmarket,ON,L3Y 8P4,44.0597,-79.48368
Newmarket,ON,L3Y 8X2,44.0674895,-79.4305015
Bradford,ON,L3Z 0A2,44.10645,-79.58884
Tilbury,ON,K0K 1H0,44.10881334,-77.65945017
Brighton,ON,K0K 1H0,44.10961515,-77.65957072
Brighton,ON,K0K 3M0,44.11120219,-77.65956907
Mulmur,ON,L9V 0L3,44.11706,-80.02563
Durham,ON,N0G 1R0,44.1338163,-80.8120012
Alliston,ON,L9R 1P8,44.14954,-79.8841
Kincardine,ON,N2Z 3B8,44.172322,-81.616349
Belleville,ON,K8P 4V2,44.186798,-77.400017
Grimsby,ON,L3M 1L1,44.18697,-77.40023
Belleville,ON,K8P 3E1,44.187864,-77.398877
Cookstown,ON,L0L 1L0,44.1976998,-79.6650163
Cookstown,ON,L0L 1L0,44.198979,-79.659555
Innisfill,ON,L0L 1L0,44.1990319,-79.6514386
Cookstown,ON,L0L 1L0,44.200234,-79.649751
Kingston,ON,K7K 1A1,44.232402,-76.479451
Keswick,ON,L4P 3E9,44.235548,-79.450049
Keswick,ON,L4P 2M4,44.235817,-79.450984
Keswick,ON,L4P 3E9,44.23598,-79.45037
Kingston,ON,K7M 4X6,44.23805787,-76.55257089
Kingston,ON,K7M 4X9,44.238125,-76.569503
Kingston,ON,K7M 3X9,44.245478,-76.567324
Innisfil,ON,L9S 3R7,44.24608129,-79.67042023
Kingston,ON,K7M 3G4,44.259,-76.558001
KIngston,ON,K7P2S8,44.26005,-76.56913
Napanee,ON,K7R 1P8,44.26005,-76.96489
Kingston,ON,K7K 6C3,44.264946,-76.501804
Kingston,ON,K7M 3L8,44.26725,-76.5447
Kingston,ON,K7K 0C4,44.267279,-76.503377
Napanee,ON,K7R 3L2,44.268417,-76.967826
Odessa,ON,K0H 2H0,44.2799266,-76.7147294
Odessa,ON,K0H 2H0,44.27994808,-76.80367202
Peterborough,ON,K9J 7M2,44.280181,-78.350614
Kingston,ON,K7P 0C7,44.280454,-76.570333
Peterborough,ON,K9J 5X9,44.28103884,-78.34996558
Peterborough,ON,K9J 5X9,44.28107292,-78.35017839
Peterborough,ON,K9J 7Y5,44.283163,-78.333186
Odessa,ON,K0H 2H0,44.2836657,-76.65777726
Peterborough,ON,K9J 7Y5,44.283849,-78.331762
Innisfil,ON,L9S 4A3,44.28615834,-79.67255666
Peterborough,ON,K9J 5Y2,44.290857,-78.34491
North Odessa,ON,K0H 2H0,44.29948279,-76.74587912
North Odessa,ON,K0H 2H0,44.29948279,-76.74587912
Barrie,ON,L4N9H7,44.33319,-79.69172
Lindsay,ON,K9V 3H7,44.340826,-78.744536
Barrie,ON,L4N 9H6,44.341123,-79.678975
Lansdowne,ON,K0E 1L0,44.34913344,-75.98540343
Peterborough,ON,K9J 6X5,44.3508257,-78.3013815
Barrie,ON,L4N 9B1,44.35197341,-79.68721515
Barrie,ON,L4N 8V8,44.3582547,-79.6949349
Barrie,ON,L4N 8X8,44.359273,-79.692718
Barrie,ON,L4N 4V9,44.374362,-79.712894
Norwood,ON,K0L 2V0,44.382074,-77.980334
Barrie,ON,L4M 5A2,44.410803,-79.709357
Barrie,ON,L4M 4X7,44.41103991,-79.68905791
Barrie,ON,L4M 3X9,44.4145,-79.667596
Stayner,ON,L0M 1S0,44.419607,-80.087289
Havelock,ON,K0L 1Z0,44.433386,-77.893121
Minesing,ON,L9X 0Z7,44.444431,-79.748559
Port Elgin,ON,N0H 2C6,44.451756,-81.377065
Wasaga Beach,ON,L9Z 1A7,44.47175,-80.07383
Wasaga Beach,ON,L9Z 1A7,44.4730007,-80.073922
Mallorytown,ON,K0E 1R0,44.48952963,-75.85499526
Mallorytown,ON,K0E 1R0,44.48952963,-75.85499526
Collingwood,ON,L9Y 3J6,44.499925,-80.196829
Collingwood,ON,L9Y 2N9,44.50072,-80.218219
Collingwood,ON,L9Y 0X4,44.5007687,-80.2169047
Collingwood,ON,L9Y 3Y6,44.50322,-80.23571
Collingwood,ON,L9Y 3Y6,44.50322,-80.23571
Kaladar,ON,K0H 1Z0,44.505555,-77.321388
Mallorytown,ON,K0E 1R0,44.50591754,-75.83534089
Mallorytown,ON,K0E 1R0,44.50676537,-75.81231009
Mallorytown,ON,K0E 1R0,44.50676537,-75.81231009
Collingwood,ON,L9Y 0W5,44.508279,-80.238136
Morrisburg,ON,K0C 1X0,44.5430058,-75.7556691
Owen Sound,ON,N4K 5N7,44.55809574,-80.97708356
Owen Sound,ON,N4K 2H2,44.565258,-80.94233
Owen Sound,ON,N4K 2H2,44.565289,-80.941981
Owen Sound,ON,N4K 6N4,44.56876185,-80.92724929
Owen Sound,ON,N4K 6Y3,44.574169,-80.912222
Brockville,ON,K6V 4W8,44.6006749,-75.7032006
Brockville,ON,K6V 7J5,44.60551,-75.69847
Orillia,ON,L3V 7Z4,44.60788,-79.45183
Brockville,ON,K6V 7N4,44.6140249,-75.6887651
Orillia,ON,L3V 7X6,44.630791,-79.436327
Prescott,ON,K0E 1T0,44.721559,-75.52285
Midland,ON,L4R 0A9,44.729823,-79.873715
Wiarton,ON,N0H 2T0,44.742768,-81.140554
Washago,ON,L0K 2B0,44.752979,-79.338417
Spencerville,ON,K0E 1X0,44.7600977,-75.4828015
Penetanguishene,ON,L9M 1L5,44.766964,-79.931511
Waubaushene,ON,L0K 2C0,44.77996,-79.66809
Coldwater,ON,L0K 1E0,44.805886,-79.735155
Georgian Bay,ON,L0K 1S0,44.80774965,-79.73635988
Smith Falls,ON,K7A 4G5,44.893312,-76.029635
Gravenhurst,ON,P1P 1K8,44.90751417,-79.37009902
Gravenhurst,ON,P1P 1K8,44.908049,-79.368723
Perth,ON,K7H 3A7,44.908464,-76.266222
Perth,ON,K7H 3E7,44.9116641,-76.26088
Morrisburg,ON,K0C 1X0,44.94459633,-75.12883286
Ingleside,ON,K0C 1M0,44.97165185,-75.0777894
Ingleside,ON,K0C 1M0,44.97176629,-75.08167068
Gravenhurst,ON,P1P 1R1,44.9925,-79.30921
Cornwall,ON,K6J 5C6,45.022218,-74.746758
Kemptville,ON,K0G 1J0,45.023078,-75.619535
Cornwall,ON,K6J 4P3,45.023716,-74.748123
Kemptville,ON,K0G 1J0,45.0284392,-75.6340751
Kemptville,ON,K0G 1J0,45.02923457,-75.63368639
Kemptville,ON,K0G 1J0,45.02957639,-75.63405486
Cornwall,ON,K6H 2V1,45.03008,-74.73192
Cornwall,ON,K6J 5Y2,45.0406749,-74.797032
Bancroft,ON,K0L 1C0,45.084215,-77.861457
Carleton Place,ON,K7C 3P2,45.132451,-76.120819
Carleton Place,ON,K7C 2V4,45.138936,-76.144094
Bainsville,ON,K0C 1E0,45.20261212,-74.36263766
Tobermory,ON,N0H 2R0,45.248312,-81.659208
Russell,ON,K4R 0C3,45.257657,-75.358871
Ottawa,ON,K2J 6H8,45.265039,-75.778135
Ottawa,ON,K2J 5G3,45.27005949,-75.74376665
Orleans,ON,K1C 2X8,45.27593,-75.32377
Ottawa,ON,K2V 1E2,45.293911,-75.931998
Casselman,ON,K0A 1M0,45.30471,-75.081805
Parry Sound,ON,P2A 2W8,45.3065471,-79.8959302
Casselman,ON,K0A 1M0,45.306924,-75.083287
Casselman,ON,K0A 1M0,45.307333,-75.081801
Kanata,ON,K2T 1G7,45.308005,-75.909408
Kanata,ON,K2T 1B7,45.3088,-75.917341
Nepean,ON,K2H 5Z2,45.32157,-75.835377
Huntsville,ON,P1H 1M4,45.332649,-79.235065
Huntsville,ON,P1H 2A5,45.333611,-79.206703
Nepean,ON,K2J 4Y6,45.33651,-75.72663
Nepean,ON,K2G 1E6,45.33651,-75.72663
Kanata,ON,K2K 2E4,45.34076,-75.912767
Parry Sound,ON,P2A 2N7,45.3422637,-80.03080552
Parry Sound,ON,P2A 3B8,45.342328,-80.00667
Parry Sound,ON,P2A 2L8,45.34382728,-80.01101156
Nepean,ON,K2G 5K7,45.344254,-75.760625
Parry Sound,ON,P2A 3C1,45.345586,-80.006162
Ottawa,ON,K2C 3S4,45.349861,-75.785074
Ottawa,ON,K2B 7K2,45.3532828,-75.8045536
Ottawa,ON,K2B 7K2,45.35342603,-75.80457506
Ottawa,ON,K1R 6P3,45.41143,-75.70647
Gloucester,ON,K1B 3L8,45.41705,-75.60986
Ottawa,ON,K1G,45.418381,-75.633603
Ottawa,ON,K1K 4S3,45.42054,-75.6517
Ottawa,ON,K1J 8G9,45.42409397,-75.63529326
Arnprior,ON,K7S 3K6,45.42608075,-76.36664237
Ottawa,ON,K1N 9J7,45.426082,-75.690165
Ottawa,ON,K1N 9J7,45.426387,-75.690794
Ottawa,ON,K1N 7E5,45.429826,-75.691315
Arnprior,ON,K7S 2N8,45.434577,-76.352803
Gloucester,ON,K1J 8X3,45.435847,-75.605202
Orleans,ON,K4A 4C5,45.46005,-75.48358
Renfrew,ON,K7V 0B4,45.48065,-76.64901
Rockland,ON,K4K 0B2,45.543549,-75.304486
Pointe au Baril,ON,P0G 1K0,45.581004,-80.357304
Hawkesbury,ON,K3A 3R3,45.59264,-74.59901
Hawkesbury,ON,K6A 1A9,45.610082,-74.603541
West Hawkesbury,ON,K6A 2J3,45.611323,-74.624095
Strong,ON,P0A 0A7,45.735075,-79.425255
Laurentian Valley,ON,K8A 6W7,45.813818,-77.218845
Pembroke,ON,K8A 5M7,45.825952,-77.115073
South River,ON,P0A 1X0,45.838358,-79.377755
Petawawa,ON,K8H 3J1,45.89112122,-77.26536225
Deep River,ON,K0J 1P0,46.099683,-77.499963
Blind River,ON,P0R 1B0,46.185195,-82.952585
Blind River,ON,P0R 1B0,46.185322,-82.926876
Espanola,ON,P5E 1S3,46.24782798,-81.76009196
McKerrow,ON,P0P 1M0,46.286494,-81.775164
North Bay,ON,P1B 9V6,46.308712,-79.438416
North Bay,ON,P1A 3Z6,46.309826,-79.439781
Mattawa,ON,P0H 1V0,46.31777,-78.704294
North Bay,ON,P1B 9E6,46.32186,-79.44538
North Bay,ON,P1B 8M1,46.33226,-79.470873
North Bay,ON,P1B 8G5,46.35111064,-79.50154026
North Bay,ON,P1B 8G5,46.35111064,-79.50154026
Elliot Lake,ON,P5A 2T2,46.382869,-82.643252
Sudbury,ON,P3Y 1C3,46.4214965,-81.138559
Sudbury,ON,P3E 0C5,46.440506,-81.004739
Sudbury,ON,P3E 3Z8,46.453639,-81.00455
Sudbury,ON,P3B 0A3,46.50455353,-80.95331039
Sault Ste. Marie,ON,P6A 3T2,46.5230528,-84.2703186
Sault Ste Marie,ON,P6B 4J1,46.53718224,-84.31818115
Sault Ste. Marie,ON,P6B 4Z7,46.538211,-84.316643
Sault Ste. Marie,ON,P6B 4Z7,46.53843827,-84.31825628
Sault Ste. Marie,ON,P6A 5K7,46.552036,-84.319537
Temagami,ON,P0H 2H0,47.06416185,-79.79102825
New Liskeard,ON,P0J 1P0,47.4975,-79.694166
New Liskeard,ON,P0J 1P0,47.5259297,-79.6736804
Temiskaming Shores,ON,P0J 1P0,47.54006938,-79.6737463
Chapleau,ON,P0M 1K0,47.843416,-83.412412
Algoma,ON,P0M 3G0,47.885195,-84.544768
Wawa,ON,P0S 1K0,47.983312,-84.779863
Wawa,ON,P0S 1K0,47.98756247,-84.77794742
Thunder Bay,ON,P7K 1K2,48.381055,-89.312274
Thunder Bay,ON,P7E 5P7,48.38115972,-89.28375649
Black River-Matheson,ON,P0K 1N0,48.38474,-80.27186
Thunder Bay,ON,P7B 6B5,48.405391,-89.257744
Thunder Bay,ON,P7B 6L9,48.40551886,-89.24937077
Thunder Bay,ON,P7B 7A4,48.42,-89.28
Thunder Bay,ON,P7B 1K7,48.4517155,-89.2548784
Timmins,ON,P4N 2N9,48.47,-81.32
Timmins,ON,P4R 1N4,48.471906,-81.405326
Timmins,ON,P4N 2J5,48.475881,-81.328829
White River,ON,P0N 3G0,48.591881,-85.272325
White River,ON,P0M 3G0,48.59445303,-85.27947953
Fort Frances,ON,P9A 2X6,48.60774,-93.428884
Fort Frances,ON,P9A 3K3,48.6096602,-93.4176349
Fort Frances,ON,P9A 3J3,48.61012497,-93.41509173
Marathon,ON,P0T 2E0,48.72071,-86.371444
Marathon,ON,P0T 2E0,48.740697,-86.355348
Atikokan,ON,P0T 1C0,48.756348,-91.622269
Terrace Bay,ON,P0T 2W0,48.78231136,-87.1013952
Terrace Bay,ON,P0T 2W0,48.783022,-87.099836
Nipigon,ON,P0T 2J0,49.00924,-88.26174
Nipigon,ON,PT 2J0,49.017617,-88.307553
Nipigon,ON,P0T 2J0,49.02285199,-88.29670186
Upsala,ON,P0T 2Y0,49.04127723,-90.4684308
Upsala,ON,P0T 2Y0,49.041832,-90.46867
Kapusksing,ON,P5N2X6,49.412488,-82.424053
Ignace,ON,P0T 1T0,49.416446,-91.659839
Ignace,ON,P0T 1T0,49.4168041,-91.6595387
Ignace,ON,P0T 1T0,49.435664,-91.628098
Geraldton,ON,P0T 1M0,49.684352,-86.355348
Hearst,ON,P0L 1N0,49.69044322,-83.66796327
Hearst,ON,P0L 1R0,49.70097,-83.64962
Geraldton,ON,P0T 1M0,49.71645405,-86.95146471
Longbow Lake,ON,P0X 1H0,49.72608588,-94.32485838
Longbow Lake,ON,P0X 1H0,49.72620469,-94.32369513
Kenora,ON,P9N 1L9,49.759447,-94.473103
Kenora,ON,P9N 1L8,49.760283,-94.476554
Dryden,ON,P8N 2P6,49.785605,-92.809966
Dryden,ON,P8N 2P4,49.78731,-92.82899
Kenora,ON,P9N 4L1,49.789819,-94.486795
Dryden,ON,P8N 2P6,49.804444,-92.846388
